NORAD_CAT_ID,OBJECT_NAME,OBJECT_TYPE,EPOCH,MEAN_MOTION,ECCENTRICITY,INCLINATION,RA_OF_ASC_NODE,ARG_OF_PERICENTER,MEAN_ANOMALY,BSTAR,MEAN_MOTION_DOT,MEAN_MOTION_DDOT,TLE_LINE0,TLE_LINE1,TLE_LINE2,SEMIMAJOR_AXIS,PERIOD,APOGEE,PERIGEE,DECAYED
52095.0,STARLINK-3701,PAYLOAD,2023-06-05 02:16:13,15.08840508,0.0001,53.2179,296.8782,76.8093,283.301,6.3379e-05,7.21e-06,0.0,0 STARLINK-3701,1 52095U 22029H   23156.09459748  .00000721  00000-0  63379-4 0  9991,2 52095  53.2179 296.8782 0001000  76.8093 283.3010 15.08840508 68398,6917.879,95.438,540.436,539.052,0.0
52095.0,STARLINK-3701,PAYLOAD,2023-06-05 13:23:55,15.088429,9.99e-05,53.2171,294.7977,85.8139,274.2967,9.0744e-05,1.157e-05,0.0,0 STARLINK-3701,1 52095U 22029H   23156.55827633  .00001157  00000-0  90744-4 0  9994,2 52095  53.2171 294.7977 0000999  85.8139 274.2967 15.08842900 68466,6917.872,95.437,540.428,539.045,0.0
52095.0,STARLINK-3701,PAYLOAD,2023-06-05 18:10:04,15.08845056,0.000108,53.2164,293.9058,77.7046,282.4067,0.00010952,1.456e-05,0.0,0 STARLINK-3701,1 52095U 22029H   23156.75699448  .00001456  00000-0  10952-3 0  9991,2 52095  53.2164 293.9058 0001080  77.7046 282.4067 15.08845056 68498,6917.865,95.437,540.477,538.983,0.0
52095.0,STARLINK-3701,PAYLOAD,2023-06-06 10:03:56,15.08835798,0.0001147,53.2172,290.9329,80.9571,279.1551,1.1779e-05,-1e-06,0.0,0 STARLINK-3701,1 52095U 22029H   23157.41940375 -.00000100  00000-0  11779-4 0  9998,2 52095  53.2172 290.9329 0001147  80.9571 279.1551 15.08835798 68592,6917.893,95.438,540.552,538.965,0.0
52095.0,STARLINK-3701,PAYLOAD,2023-06-06 18:00:51,15.08846376,0.0001116,53.2174,289.4462,86.4832,273.6287,3.2391e-05,2.28e-06,0.0,0 STARLINK-3701,1 52095U 22029H   23157.75059575  .00000228  00000-0  32391-4 0  9991,2 52095  53.2174 289.4462 0001116  86.4832 273.6287 15.08846376 68647,6917.861,95.437,540.498,538.954,0.0
52095.0,STARLINK-3701,PAYLOAD,2023-06-07 11:30:06,15.08835696,8.93e-05,53.2173,286.1762,83.8812,276.2282,3.5511e-05,2.77e-06,0.0,0 STARLINK-3701,1 52095U 22029H   23158.47924263  .00000277  00000-0  35511-4 0  9997,2 52095  53.2173 286.1762 0000893  83.8812 276.2282 15.08835696 68752,6917.894,95.438,540.376,539.141,0.0
52095.0,STARLINK-3701,PAYLOAD,2023-06-07 19:27:01,15.08848366,9.47e-05,53.2175,284.6878,86.8031,273.307,6.3012e-05,7.15e-06,0.0,0 STARLINK-3701,1 52095U 22029H   23158.81043365  .00000715  00000-0  63012-4 0  9994,2 52095  53.2175 284.6878 0000947  86.8031 273.3070 15.08848366 68808,6917.855,95.437,540.375,539.065,0.0
52095.0,STARLINK-3701,PAYLOAD,2023-06-08 01:48:34,15.08842173,0.0001211,53.2171,283.501,72.4627,287.6498,-1.3509e-05,-5.03e-06,0.0,0 STARLINK-3701,1 52095U 22029H   23159.07540042 -.00000503  00000-0 -13509-4 0  9990,2 52095  53.2171 283.5010 0001211  72.4627 287.6498 15.08842173 68843,6917.874,95.437,540.577,538.901,0.0
52095.0,STARLINK-3701,PAYLOAD,2023-06-08 14:31:39,15.08837755,7.41e-05,53.2177,281.1187,86.3292,273.7785,0.00018881,2.718e-05,0.0,0 STARLINK-3701,1 52095U 22029H   23159.60531807  .00002718  00000-0  18881-3 0  9993,2 52095  53.2177 281.1187 0000741  86.3292 273.7785 15.08837755 68921,6917.887,95.438,540.265,539.24,0.0
52095.0,STARLINK-3701,PAYLOAD,2023-06-08 17:42:25,15.08850631,9.7e-05,53.2174,280.5248,80.5787,279.5314,0.00013613,1.88e-05,0.0,0 STARLINK-3701,1 52095U 22029H   23159.73779168  .00001880  00000-0  13613-3 0  9998,2 52095  53.2174 280.5248 0000970  80.5787 279.5314 15.08850631 68940,6917.848,95.437,540.384,539.042,0.0
52095.0,STARLINK-3701,PAYLOAD,2023-06-09 14:22:26,15.08841594,9.43e-05,53.2174,276.6591,80.7618,279.3481,1.7604e-05,-8e-08,0.0,0 STARLINK-3701,1 52095U 22029H   23160.59891915 -.00000008  00000-0  17604-4 0  9996,2 52095  53.2174 276.6591 0000943  80.7618 279.3481 15.08841594 69078,6917.876,95.437,540.393,539.088,0.0
52095.0,STARLINK-3701,PAYLOAD,2023-06-10 14:13:13,15.08838393,9.4e-05,53.2174,272.1992,88.2979,271.8121,3.867e-05,3.28e-06,0.0,0 STARLINK-3701,1 52095U 22029H   23161.59252117  .00000328  00000-0  38670-4 0  9992,2 52095  53.2174 272.1992 0000940  88.2979 271.8121 15.08838393 69222,6917.885,95.438,540.401,539.1,0.0
52095.0,STARLINK-3701,PAYLOAD,2023-06-10 23:45:33,15.08820368,8.47e-05,53.2174,270.4139,92.7215,267.3874,0.00027251,4.05e-05,0.0,0 STARLINK-3701,1 52095U 22029H   23161.98996894  .00004050  00000-0  27251-3 0  9990,2 52095  53.2174 270.4139 0000847  92.7215 267.3874 15.08820368 69289,6917.94,95.439,540.391,539.219,0.0
52095.0,STARLINK-3701,PAYLOAD,2023-06-11 06:07:05,15.08839605,9.52e-05,53.2173,269.2256,79.1482,280.9618,-6.0579e-05,-1.252e-05,0.0,0 STARLINK-3701,1 52095U 22029H   23162.25492310 -.00001252  00000-0 -60579-4 0  9999,2 52095  53.2173 269.2256 0000952  79.1482 280.9618 15.08839605 69322,6917.882,95.438,540.405,539.088,0.0
52095.0,STARLINK-3701,PAYLOAD,2023-06-11 14:04:00,15.08844635,8.4e-05,53.2162,267.74,82.0047,278.104,1.0023e-05,-1.28e-06,0.0,0 STARLINK-3701,1 52095U 22029H   23162.58611989 -.00000128  00000-0  10023-4 0  9999,2 52095  53.2162 267.7400 0000840  82.0047 278.1040 15.08844635 69372,6917.866,95.437,540.312,539.15,0.0
52095.0,STARLINK-3701,PAYLOAD,2023-06-11 23:36:19,15.08845814,8.58e-05,53.2165,265.9557,84.8221,275.2869,6.5742e-05,7.59e-06,0.0,0 STARLINK-3701,1 52095U 22029H   23162.98355680  .00000759  00000-0  65742-4 0  9993,2 52095  53.2165 265.9557 0000858  84.8221 275.2869 15.08845814 69435,6917.863,95.437,540.321,539.134,0.0
52095.0,STARLINK-3701,PAYLOAD,2023-06-12 05:57:52,15.08834793,9.08e-05,53.2161,264.7671,93.4704,266.6392,8.8852e-05,1.126e-05,0.0,0 STARLINK-3701,1 52095U 22029H   23163.24852373  .00001126  00000-0  88852-4 0  9990,2 52095  53.2161 264.7671 0000908  93.4704 266.6392 15.08834793 69476,6917.896,95.438,540.389,539.133,0.0
52095.0,STARLINK-3701,PAYLOAD,2023-06-12 13:54:48,15.08834014,9.16e-05,53.216,263.2803,92.8189,267.2908,7.2573e-05,8.67e-06,0.0,0 STARLINK-3701,1 52095U 22029H   23163.57972565  .00000867  00000-0  72573-4 0  9996,2 52095  53.2160 263.2803 0000916  92.8189 267.2908 15.08834014 69527,6917.899,95.438,540.397,539.13,0.0
52095.0,STARLINK-3701,PAYLOAD,2023-06-12 23:27:07,15.08835708,9.09e-05,53.2158,261.4963,99.4151,260.6944,5.8185e-05,6.38e-06,0.0,0 STARLINK-3701,1 52095U 22029H   23163.97716575  .00000638  00000-0  58185-4 0  9996,2 52095  53.2158 261.4963 0000909  99.4151 260.6944 15.08835708 69589,6917.894,95.438,540.387,539.13,0.0
52095.0,STARLINK-3701,PAYLOAD,2023-06-13 23:17:54,15.08838798,9.7e-05,53.2168,257.0348,88.7407,271.3696,2.902e-06,-2.42e-06,0.0,0 STARLINK-3701,1 52095U 22029H   23164.97076769 -.00000242  00000-0  29020-5 0  9990,2 52095  53.2168 257.0348 0000970  88.7407 271.3696 15.08838798 69733,6917.884,95.438,540.42,539.078,0.0
52095.0,STARLINK-3701,PAYLOAD,2023-06-14 08:50:13,15.08837765,0.0001051,53.2166,255.2506,86.364,273.7473,8.1367e-05,1.007e-05,0.0,0 STARLINK-3701,1 52095U 22029H   23165.36820738  .00001007  00000-0  81367-4 0  9997,2 52095  53.2166 255.2506 0001051  86.3640 273.7473 15.08837765 69799,6917.887,95.438,540.479,539.025,0.0
52095.0,STARLINK-3701,PAYLOAD,2023-06-14 16:47:08,15.08845578,0.0001143,53.2167,253.7637,92.2454,267.8669,0.00010189,1.334e-05,0.0,0 STARLINK-3701,1 52095U 22029H   23165.69940107  .00001334  00000-0  10189-3 0  9992,2 52095  53.2167 253.7637 0001143  92.2454 267.8669 15.08845578 69847,6917.863,95.437,540.519,538.938,0.0
52095.0,STARLINK-3701,PAYLOAD,2023-06-14 23:08:39,15.08918335,0.0001529,53.2166,252.5739,71.8167,288.2991,-0.0010967,-0.00017737,0.0,0 STARLINK-3701,1 52095U 22029H   23165.96434060 -.00017737  00000-0 -10967-2 0  9997,2 52095  53.2166 252.5739 0001529  71.8167 288.2991 15.08918335 69889,6917.641,95.433,540.564,538.448,0.0
52095.0,STARLINK-3701,PAYLOAD,2023-06-15 10:16:24,15.08819399,9.74e-05,53.2166,250.493,93.9188,266.1916,0.0002526,3.732e-05,0.0,0 STARLINK-3701,1 52095U 22029H   23166.42805656  .00003732  00000-0  25260-3 0  9993,2 52095  53.2166 250.4930 0000974  93.9188 266.1916 15.08819399 69950,6917.943,95.439,540.482,539.135,0.0
52095.0,STARLINK-3701,PAYLOAD,2023-06-15 11:51:46,15.08837315,0.0001007,53.2163,250.1955,93.8474,266.2634,2.885e-05,1.71e-06,0.0,0 STARLINK-3701,1 52095U 22029H   23166.49429071  .00000171  00000-0  28850-4 0  9996,2 52095  53.2163 250.1955 0001007  93.8474 266.2634 15.08837315 69963,6917.889,95.438,540.45,539.057,0.0
52095.0,STARLINK-3701,PAYLOAD,2023-06-16 00:34:51,15.08843707,0.000109,53.2164,247.8165,83.8836,276.228,6.8627e-05,8.05e-06,0.0,0 STARLINK-3701,1 52095U 22029H   23167.02420550  .00000805  00000-0  68627-4 0  9999,2 52095  53.2164 247.8165 0001090  83.8836 276.2280 15.08843707 70044,6917.869,95.437,540.488,538.98,0.0
52095.0,STARLINK-3701,PAYLOAD,2023-06-16 11:42:32,15.08864048,0.0001104,53.2165,245.7342,84.5098,275.602,1.3686e-05,-7e-07,0.0,0 STARLINK-3701,1 52095U 22029H   23167.48787063 -.00000070  00000-0  13686-4 0  9994,2 52095  53.2165 245.7342 0001104  84.5098 275.6020 15.08864048 70117,6917.807,95.436,540.436,538.908,0.0
52095.0,STARLINK-3701,PAYLOAD,2023-06-16 22:50:14,15.08846356,4.97e-05,53.2179,243.6536,75.4907,284.614,9.658e-05,1.25e-05,0.0,0 STARLINK-3701,1 52095U 22029H   23167.95155671  .00001250  00000-0  96580-4 0  9994,2 52095  53.2179 243.6536 0000497  75.4907 284.6140 15.08846356 70188,6917.861,95.437,540.07,539.382,0.0
52095.0,STARLINK-3701,PAYLOAD,2023-06-17 08:22:35,15.08826315,0.0001098,53.2161,241.8687,96.4522,263.6595,-2.615e-05,-7.04e-06,0.0,0 STARLINK-3701,1 52095U 22029H   23168.34901675 -.00000704  00000-0 -26150-4 0  9992,2 52095  53.2161 241.8687 0001098  96.4522 263.6595 15.08826315 70241,6917.922,95.438,540.547,539.028,0.0
52095.0,STARLINK-3701,PAYLOAD,2023-06-17 11:33:21,15.08828848,0.000104,53.2162,241.274,99.2421,260.8689,5.8075e-07,-2.78e-06,0.0,0 STARLINK-3701,1 52095U 22029H   23168.48149536 -.00000278  00000-0  58075-6 0  9995,2 52095  53.2162 241.2740 0001040  99.2421 260.8689 15.08828848 70260,6917.914,95.438,540.499,539.06,0.0
